CYGFM04                 
1 41885U 16078B   24237.31249100  .00017221  00000+0  58064-3 0  9994
2 41885  34.9383 212.6148 0008693 134.5821 225.5605 15.29815391426609
CYGFM02                 
1 41886U 16078C   24237.32246476  .00017311  00000+0  57726-3 0  9993
2 41886  34.9463 214.6502 0010911 119.2909 240.8898 15.30151895426695
CYGFM01                 
1 41887U 16078D   24237.35717182  .00015694  00000+0  54839-3 0  9998
2 41887  34.9486 232.9017 0010134  95.0155 265.1717 15.28660080426447
CYGFM08                 
1 41888U 16078E   24237.65925742  .00017068  00000+0  57813-3 0  9997
2 41888  34.9494 218.5209 0011643 123.4571 236.7259 15.29640780426704
CYGFM07                 
1 41890U 16078G   24237.62179278  .00017292  00000+0  57992-3 0  9999
2 41890  34.9523 210.0100 0008673 139.0845 221.0523 15.29989063426669
CYGFM03                 
1 41891U 16078H   24237.33459850  .00016867  00000+0  56802-3 0  9991
2 41891  34.9440 213.0902 0008471 115.4067 244.7526 15.29859744426602
FENGYUN 3D              
1 43010U 17072A   24237.82541578  .00000344  00000+0  18519-3 0  9990
2 43010  98.9159 192.9010 0002330 116.5996 243.5418 14.19402807351156
NOAA 20 (JPSS-1)        
1 43013U 17073A   24237.85267054  .00000269  00000+0  14813-3 0  9990
2 43013  98.7075 174.6278 0002097  55.9415 304.1960 14.19568783350644
GOES 17                 
1 43226U 18022A   24237.68030747 -.00000099  00000+0  00000+0 0  9990
2 43226   0.0019  69.8473 0001981 129.6169 274.1654  1.00271087 23807
FENGYUN 2H              
1 43491U 18050A   24237.83104778 -.00000139  00000+0  00000+0 0  9993
2 43491   1.3175  86.7551 0001258  99.3347 166.0351  1.00274618 22884
METOP-C                 
1 43689U 18087A   24237.84071119  .00000333  00000+0  17227-3 0  9993
2 43689  98.7183 296.2974 0000946 219.2274 140.8834 14.21502191300875
GEO-KOMPSAT-2A          
1 43823U 18100A   24237.82978933 -.00000352  00000+0  00000+0 0  9996
2 43823   0.0202  77.0807 0001837  32.4135 291.0666  1.00274176 21036
METEOR-M2 2             
1 44387U 19038A   24237.87339171  .00000475  00000+0  22696-3 0  9997
2 44387  98.8333 207.3888 0002326 106.6814 253.4620 14.23941334267165
ARKTIKA-M 1             
1 47719U 21016A   24237.04560587  .00000082  00000+0  00000+0 0  9999
2 47719  63.1330 143.9428 6965837 268.5852  17.7999  2.00597671 25508
FENGYUN 3E              
1 49008U 21062A   24237.84794342  .00000084  00000+0  60170-4 0  9990
2 49008  98.7357 238.2143 0001685 152.8142 207.3123 14.19777039162733
GOES 18                 
1 51850U 22021A   24237.74538087  .00000088  00000+0  00000+0 0  9990
2 51850   0.0081 245.3530 0000422 309.2499 270.2277  1.00272585  9170
NOAA 21 (JPSS-2)        
1 54234U 22150A   24237.53622473  .00000291  00000+0  15891-3 0  9996
2 54234  98.7528 174.6342 0000819  43.6726 316.4515 14.19557695 92673
METEOSAT-12 (MTG-I1)    
1 54743U 22170C   24237.34338419 -.00000015  00000+0  00000+0 0  9993
2 54743   0.5725  43.8174 0002114  92.0332 320.5583  1.00269873  6343
TIANMU-1 03             
1 55973U 23039A   24237.83474297  .00015838  00000+0  65038-3 0  9997
2 55973  97.4762  28.1282 0004018 303.0049  57.0801 15.24286619 79305
TIANMU-1 04             
1 55974U 23039B   24237.87968086  .00015162  00000+0  62062-3 0  9990
2 55974  97.4685  27.6726 0005016 297.7883  62.2846 15.24400261 79309
TIANMU-1 05             
1 55975U 23039C   24237.86747610  .00014801  00000+0  60804-3 0  9999
2 55975  97.4733  28.0223 0003799 326.5847  33.5149 15.24289297 79297
TIANMU-1 06             
1 55976U 23039D   24237.84268524  .00015509  00000+0  63275-3 0  9991
2 55976  97.4745  28.1469 0004340 322.6338  37.4597 15.24507443 79295
METEOR-M2 3             
1 57166U 23091A   24237.83855639  .00000081  00000+0  54612-4 0  9995
2 57166  98.7074 291.8787 0002923 298.0930  61.9953 14.23916998 60394
TIANMU-1 07             
1 57399U 23101A   24237.79677281  .00009513  00000+0  46576-3 0  9993
2 57399  97.3569 293.0533 0003524 321.0638  39.0342 15.18376596 60835
TIANMU-1 08             
1 57400U 23101B   24237.83158178  .00010389  00000+0  50807-3 0  9995
2 57400  97.3559 292.9514 0005792 322.9357  37.1476 15.18384794 60837
TIANMU-1 09             
1 57401U 23101C   24237.81464595  .00010119  00000+0  49465-3 0  9996
2 57401  97.3515 292.7368 0006074 317.3075  42.7686 15.18404164 60833
TIANMU-1 10             
1 57402U 23101D   24237.84755928  .00010581  00000+0  51712-3 0  9994
2 57402  97.3593 293.1143 0008224 313.4682  46.5868 15.18385873 60835
FENGYUN 3F              
1 57490U 23111A   24237.79862184  .00000234  00000+0  13110-3 0  9993
2 57490  98.7650 306.2840 0000487 139.1402 220.9811 14.19863250 55006
ARKTIKA-M 2             
1 58584U 23198A   24236.27926099  .00000115  00000+0  00000+0 0  9999
2 58584  63.2520 227.7446 6957183 269.7586  17.3553  2.00600306  5022
TIANMU-1 11             
1 58645U 23205A   24237.84948629  .00008458  00000+0  44035-3 0  9991
2 58645  97.4013 261.2030 0012257 157.4295 202.7480 15.16196787 36911
TIANMU-1 12             
1 58646U 23205B   24237.86256292  .00009243  00000+0  47988-3 0  9995
2 58646  97.4000 261.1393 0011060 149.3827 210.8054 15.16278413 36904
TIANMU-1 13             
1 58647U 23205C   24237.83229902  .00009436  00000+0  49092-3 0  9993
2 58647  97.4027 261.1235 0011209 135.7771 224.4360 15.16197904 36895
TIANMU-1 14             
1 58648U 23205D   24237.81608841  .00010022  00000+0  52106-3 0  9998
2 58648  97.3953 260.9057 0011837 139.1565 221.0557 15.16199707 36892
TIANMU-1 19             
1 58660U 23208A   24237.81875649  .00011845  00000+0  61061-3 0  9991
2 58660  97.4149 348.5672 0009961 124.5200 235.6975 15.16475281 36562
TIANMU-1 20             
1 58661U 23208B   24237.85279928  .00012751  00000+0  64264-3 0  9999
2 58661  97.4079 348.5900 0010626 133.3547 226.8574 15.17245939 36586
TIANMU-1 21             
1 58662U 23208C   24237.86922131  .00013990  00000+0  68464-3 0  9994
2 58662  97.4115 348.9962 0010218 133.5486 226.6598 15.18256565 36606
TIANMU-1 22             
1 58663U 23208D   24237.83733857  .00011556  00000+0  59789-3 0  9993
2 58663  97.4137 348.6430 0005991 140.7013 219.4656 15.16379777 36576
TIANMU-1 15             
1 58700U 24004A   24237.81497413  .00009783  00000+0  50865-3 0  9998
2 58700  97.4647  57.7056 0010003 167.8705 192.2771 15.16226961 35160
TIANMU-1 16             
1 58701U 24004B   24237.79622073  .00010516  00000+0  54586-3 0  9998
2 58701  97.4574  57.5054 0009830 174.0250 186.1102 15.16264328 35166
TIANMU-1 17             
1 58702U 24004C   24237.84834151  .00010691  00000+0  55555-3 0  9998
2 58702  97.4619  57.7219 0007842 166.5945 193.5497 15.16236029 35166
TIANMU-1 18             
1 58703U 24004D   24237.83070832  .00009770  00000+0  50809-3 0  9999
2 58703  97.4636  57.7925 0007343 155.6612 204.4969 15.16238889 35168
INSAT-3DS               
1 58990U 24033A   24236.28035330 -.00000165  00000+0  00000+0 0  9995
2 58990   0.1073 272.8603 0001876 246.1028 356.1014  1.00273247 40423
METEOR-M2 4             
1 59051U 24039A   24237.86804445  .00000149  00000+0  86376-4 0  9992
2 59051  98.6036 198.0903 0005947 289.9378  70.1159 14.22255001 25254
GOES 19                 
1 60133U 24119A   24236.61029212 -.00000190  00000+0  00000+0 0  9999
2 60133   0.0469 232.8363 0002753 222.7700   7.0030  1.00269752   314
STARLINK-32138          
1 60255U 24131A   24237.91667824 -.00036924  00000+0 -91705-3 0  9990
2 60255  53.1588 146.5622 0000738  68.9638 225.8276 15.39638532  5578
STARLINK-32212          
1 60256U 24131B   24237.91667824 -.00043165  00000+0 -12792-2 0  9994
2 60256  53.1597 146.7653 0002035  95.5842  96.7253 15.34262604  5635
STARLINK-32166          
1 60257U 24131C   24237.58335648 -.00005092  00000+0 -11738-3 0  9991
2 60257  53.1591 148.1826 0001226 101.1316 119.3977 15.39626626  5660
STARLINK-32200          
1 60258U 24131D   24237.82184558  .00003683  00000+0  10217-3 0  9994
2 60258  53.1593 147.2663 0001248  96.9846 263.1301 15.39570094  5616
STARLINK-32207          
1 60259U 24131E   24237.91667824 -.00004651  00000+0 -12730-3 0  9997
2 60259  53.1592 146.9188 0001321  80.3485  34.7210 15.34228251  5624
STARLINK-32125          
1 60260U 24131F   24237.72579629 -.00001014  00000+0 -10193-4 0  9995
2 60260  53.1612 147.3730 0000435  94.4020 265.7039 15.49318262  5626
STARLINK-32160          
1 60261U 24131G   24237.46742794 -.00002128  00000+0 -30205-4 0  9995
2 60261  53.1607 148.6053 0000779  54.2461 305.8620 15.49324573  5621
STARLINK-32163          
1 60262U 24131H   24237.58335648 -.02145382  00000+0 -49959-1 0  9990
2 60262  53.1587 148.0541 0001205 139.1380 145.9001 15.45400892  5668
STARLINK-32148          
1 60263U 24131J   24237.58335648 -.00018810  00000+0 -33088-3 0  9992
2 60263  53.1578 148.0484 0001099  91.5844 197.3855 15.49314944  5712
STARLINK-32121          
1 60264U 24131K   24237.91667824 -.00034215  00000+0 -84830-3 0  9992
2 60264  53.1597 146.7680 0001294  81.2320 110.5474 15.39653072  5686
STARLINK-32120          
1 60265U 24131L   24237.46570614 -.00001375  00000+0 -16661-4 0  9992
2 60265  53.1603 148.5938 0000741  57.9287 302.1794 15.49330614  5622
STARLINK-32205          
1 60266U 24131M   24237.58335648  .00034330  00000+0  10291-2 0  9998
2 60266  53.1592 148.2185 0001150  71.9804 129.8353 15.34198125  5669
STARLINK-32158          
1 60267U 24131N   24237.46537346  .00000607  00000+0  18954-4 0  9991
2 60267  53.1598 148.5934 0000680 104.0274 256.0810 15.49315011  5478
STARLINK-32167          
1 60268U 24131P   24237.91667824 -.00022671  00000+0 -66516-3 0  9990
2 60268  53.1598 146.8148 0000899  81.4078  85.1499 15.34244171  5633
